GSAT0216 (GALILEO 20)   
1 43056U 17079B   26073.28055991  .00000034  00000+0  00000+0 0  9994
2 43056  55.1052 224.1154 0001736 311.7748  48.1644  1.70474699 51386
GSAT0217 (GALILEO 21)   
1 43057U 17079C   26071.74158320  .00000037  00000+0  00000+0 0  9997
2 43057  55.1048 224.1555 0001948 350.8522   9.1027  1.70474639 51348
GSAT0218 (GALILEO 22)   
1 43058U 17079D   26072.54820792  .00000036  00000+0  00000+0 0  9995
2 43058  55.1035 224.1311 0002024 298.9535  60.9828  1.70474604 51387
GSAT0221 (GALILEO 25)   
1 43564U 18060A   26065.99917537 -.00000103  00000+0  00000+0 0  9999
2 43564  57.2026 344.5430 0005694 308.1098  51.8621  1.70475614 47427
GSAT0222 (GALILEO 26)   
1 43565U 18060B   26065.04549094 -.00000105  00000+0  00000+0 0  9997
2 43565  57.2060 344.5721 0004084 287.9587  72.0183  1.70475258 47453
GSAT0219 (GALILEO 23)   
1 43566U 18060C   26067.02636862 -.00000101  00000+0  00000+0 0  9994
2 43566  57.2050 344.5202 0004318 344.0327  15.9782  1.70474822 47462
GSAT0220 (GALILEO 24)   
1 43567U 18060D   26058.44840234 -.00000102  00000+0  00000+0 0  9992
2 43567  57.2075 344.7516 0005301 308.5821  51.3768  1.70475159 47302
GSAT0223 (GALILEO 27)   
1 49809U 21116A   26073.28386141 -.00000081  00000+0  00000+0 0  9990
2 49809  57.1915 344.2418 0001958 285.8605 269.7171  1.70475737 26566
GSAT0224 (GALILEO 28)   
1 49810U 21116B   26064.29072237 -.00000105  00000+0  00000+0 0  9998
2 49810  57.1948 344.4822 0001942 295.2728 253.6293  1.70475760 26438
GSAT0225 (GALILEO 29)   
1 59598U 24079A   26073.38599072  .00000038  00000+0  00000+0 0  9998
2 59598  55.0556 103.7282 0002816 259.7008 104.1588  1.70475013 11709
GSAT0227 (GALILEO 30)   
1 59600U 24079C   26072.39006147  .00000031  00000+0  00000+0 0  9991
2 59600  55.0508 103.7545 0000363  35.4320 324.6432  1.70474883 11737
GSAT0232 (GALILEO 32)   
1 61182U 24167A   26048.66150565  .00000069  00000+0  00000+0 0  9995
2 61182  55.2225 224.5881 0003600 296.6314 116.1306  1.70443939  8265
GSAT0226 (GALILEO 31)   
1 61183U 24167B   26072.77594144  .00000035  00000+0  00000+0 0  9993
2 61183  55.2155 223.9355 0001584 137.4612  46.3182  1.70474359  9222
GSAT0234 (GALILEO 34)   
1 67162U 25302C   26074.08993896  .00000041  00000+0  00000+0 0  9998
2 67162  54.2713 104.8109 0002770 226.2129 140.3863  1.70474988  1575
